{
  "type": "FeatureCollection",
  "features": [
    {
      "type": "Feature",
      "properties": {
        "norad_id": 22490,
        "name": "SCD 1",
        "group": "resource",
        "lat": 22.063198295694775,
        "lon": -40.044141704433336,
        "alt_km": 720.6957831299042,
        "timestamp": "2025-12-15T20:48:53.541496+00:00",
        "meta_object_name": "SCD 1",
        "meta_object_id": "1993-009B",
        "meta_epoch": "2025-12-14T21:37:05.469600",
        "meta_mean_motion": 14.46000545,
        "meta_eccentricity": 0.00418843,
        "meta_inclination": 24.9694,
        "meta_ra_of_asc_node": 265.3477,
        "meta_arg_of_pericenter": 347.9617,
        "meta_mean_anomaly": 72.9494,
        "meta_ephemeris_type": 0,
        "meta_classification_type": "U",
        "meta_norad_cat_id": 22490,
        "meta_element_set_no": 999,
        "meta_rev_at_epoch": 73441,
        "meta_bstar": 9.9623799e-05,
        "meta_mean_motion_dot": 5.49e-06,
        "meta_mean_motion_ddot": 0,
        "tle_line1": "1 22490U 93009B   25348.90075775  .00000549  00000+0  99624-4 0  9991",
        "tle_line2": "2 22490  24.9694 265.3477 0041884 347.9617  72.9494 14.46000545734412"
      },
      "geometry": {
        "type": "Point",
        "coordinates": [
          -40.044141704433336,
          22.063198295694775
        ]
      }
    },
    {
      "type": "Feature",
      "properties": {
        "norad_id": 25397,
        "name": "TECHSAT 1B (GO-32)",
        "group": "resource",
        "lat": -2.6990769878482737,
        "lon": -26.420766488167736,
        "alt_km": 812.9896558297778,
        "timestamp": "2025-12-15T20:48:53.541523+00:00",
        "meta_object_name": "TECHSAT 1B (GO-32)",
        "meta_object_id": "1998-043D",
        "meta_epoch": "2025-12-14T21:13:30.647136",
        "meta_mean_motion": 14.2437765,
        "meta_eccentricity": 0.00019968,
        "meta_inclination": 98.9922,
        "meta_ra_of_asc_node": 332.146,
        "meta_arg_of_pericenter": 53.8079,
        "meta_mean_anomaly": 306.3283,
        "meta_ephemeris_type": 0,
        "meta_classification_type": "U",
        "meta_norad_cat_id": 25397,
        "meta_element_set_no": 999,
        "meta_rev_at_epoch": 42509,
        "meta_bstar": 6.9086644e-05,
        "meta_mean_motion_dot": 1.13e-06,
        "meta_mean_motion_ddot": 0,
        "tle_line1": "1 25397U 98043D   25348.88438249  .00000113  00000+0  69087-4 0  9996",
        "tle_line2": "2 25397  98.9922 332.1460 0001996  53.8079 306.3283 14.24377650425097"
      },
      "geometry": {
        "type": "Point",
        "coordinates": [
          -26.420766488167736,
          -2.6990769878482737
        ]
      }
    },
    {
      "type": "Feature",
      "properties": {
        "norad_id": 25504,
        "name": "SCD 2",
        "group": "resource",
        "lat": 24.96647674390546,
        "lon": -149.3461057242552,
        "alt_km": 737.2739730043204,
        "timestamp": "2025-12-15T20:48:53.541539+00:00",
        "meta_object_name": "SCD 2",
        "meta_object_id": "1998-060A",
        "meta_epoch": "2025-12-14T18:32:29.724000",
        "meta_mean_motion": 14.45424603,
        "meta_eccentricity": 0.00167282,
        "meta_inclination": 24.9936,
        "meta_ra_of_asc_node": 129.361,
        "meta_arg_of_pericenter": 335.2682,
        "meta_mean_anomaly": 164.7949,
        "meta_ephemeris_type": 0,
        "meta_classification_type": "U",
        "meta_norad_cat_id": 25504,
        "meta_element_set_no": 999,
        "meta_rev_at_epoch": 43361,
        "meta_bstar": 8.8951027e-05,
        "meta_mean_motion_dot": 5e-06,
        "meta_mean_motion_ddot": 0,
        "tle_line1": "1 25504U 98060A   25348.77256625  .00000500  00000+0  88951-4 0  9990",
        "tle_line2": "2 25504  24.9936 129.3610 0016728 335.2682 164.7949 14.45424603433616"
      },
      "geometry": {
        "type": "Point",
        "coordinates": [
          -149.3461057242552,
          24.96647674390546
        ]
      }
    },
    {
      "type": "Feature",
      "properties": {
        "norad_id": 25757,
        "name": "DLR-TUBSAT",
        "group": "resource",
        "lat": 9.56652921612867,
        "lon": 155.94884919341766,
        "alt_km": 709.8767247747055,
        "timestamp": "2025-12-15T20:48:53.541551+00:00",
        "meta_object_name": "DLR-TUBSAT",
        "meta_object_id": "1999-029B",
        "meta_epoch": "2025-12-14T22:32:19.113504",
        "meta_mean_motion": 14.52358518,
        "meta_eccentricity": 0.00140358,
        "meta_inclination": 98.6565,
        "meta_ra_of_asc_node": 333.5208,
        "meta_arg_of_pericenter": 185.9643,
        "meta_mean_anomaly": 174.1387,
        "meta_ephemeris_type": 0,
        "meta_classification_type": "U",
        "meta_norad_cat_id": 25757,
        "meta_element_set_no": 999,
        "meta_rev_at_epoch": 40650,
        "meta_bstar": 4.979434e-05,
        "meta_mean_motion_dot": 1.55e-06,
        "meta_mean_motion_ddot": 0,
        "tle_line1": "1 25757U 99029B   25348.93911011  .00000155  00000+0  49794-4 0  9999",
        "tle_line2": "2 25757  98.6565 333.5208 0014035 185.9643 174.1387 14.52358518406508"
      },
      "geometry": {
        "type": "Point",
        "coordinates": [
          155.94884919341766,
          9.56652921612867
        ]
      }
    },
    {
      "type": "Feature",
      "properties": {
        "norad_id": 25994,
        "name": "TERRA",
        "group": "resource",
        "lat": -30.474322134337562,
        "lon": 46.16869979057969,
        "alt_km": 697.4336369968796,
        "timestamp": "2025-12-15T20:48:53.541564+00:00",
        "meta_object_name": "TERRA",
        "meta_object_id": "1999-068A",
        "meta_epoch": "2025-12-14T22:24:43.166880",
        "meta_mean_motion": 14.6090422,
        "meta_eccentricity": 0.00036018,
        "meta_inclination": 97.9748,
        "meta_ra_of_asc_node": 40.5378,
        "meta_arg_of_pericenter": 90.19,
        "meta_mean_anomaly": 12.8116,
        "meta_ephemeris_type": 0,
        "meta_classification_type": "U",
        "meta_norad_cat_id": 25994,
        "meta_element_set_no": 999,
        "meta_rev_at_epoch": 38270,
        "meta_bstar": 0.00011495651,
        "meta_mean_motion_dot": 5.18e-06,
        "meta_mean_motion_ddot": 0,
        "tle_line1": "1 25994U 99068A   25348.93383295  .00000518  00000+0  11496-3 0  9992",
        "tle_line2": "2 25994  97.9748  40.5378 0003601  90.1900  12.8116 14.60904220382708"
      },
      "geometry": {
        "type": "Point",
        "coordinates": [
          46.16869979057969,
          -30.474322134337562
        ]
      }
    },
    {
      "type": "Feature",
      "properties": {
        "norad_id": 27004,
        "name": "MAROC-TUBSAT",
        "group": "resource",
        "lat": 19.045230309976855,
        "lon": 154.94910315410945,
        "alt_km": 1007.2903132521278,
        "timestamp": "2025-12-15T20:48:53.541576+00:00",
        "meta_object_name": "MAROC-TUBSAT",
        "meta_object_id": "2001-056D",
        "meta_epoch": "2025-12-14T22:33:02.139840",
        "meta_mean_motion": 13.7025299,
        "meta_eccentricity": 0.00191107,
        "meta_inclination": 99.7912,
        "meta_ra_of_asc_node": 157.4231,
        "meta_arg_of_pericenter": 254.2683,
        "meta_mean_anomaly": 231.2223,
        "meta_ephemeris_type": 0,
        "meta_classification_type": "U",
        "meta_norad_cat_id": 27004,
        "meta_element_set_no": 999,
        "meta_rev_at_epoch": 20095,
        "meta_bstar": 3.4032635e-05,
        "meta_mean_motion_dot": -1.7e-07,
        "meta_mean_motion_ddot": 0,
        "tle_line1": "1 27004U 01056D   25348.93960810 -.00000017  00000+0  34033-4 0  9998",
        "tle_line2": "2 27004  99.7912 157.4231 0019110 254.2683 231.2223 13.70252990200956"
      },
      "geometry": {
        "type": "Point",
        "coordinates": [
          154.94910315410945,
          19.045230309976855
        ]
      }
    },
    {
      "type": "Feature",
      "properties": {
        "norad_id": 27424,
        "name": "AQUA",
        "group": "resource",
        "lat": -34.43806032861286,
        "lon": 124.97905440064929,
        "alt_km": 693.7198086450471,
        "timestamp": "2025-12-15T20:48:53.541588+00:00",
        "meta_object_name": "AQUA",
        "meta_object_id": "2002-022A",
        "meta_epoch": "2025-12-14T22:40:59.007360",
        "meta_mean_motion": 14.6181409,
        "meta_eccentricity": 0.00011688,
        "meta_inclination": 98.404,
        "meta_ra_of_asc_node": 309.86,
        "meta_arg_of_pericenter": 114.5725,
        "meta_mean_anomaly": 290.1501,
        "meta_ephemeris_type": 0,
        "meta_classification_type": "U",
        "meta_norad_cat_id": 27424,
        "meta_element_set_no": 999,
        "meta_rev_at_epoch": 25635,
        "meta_bstar": 0.00024483854,
        "meta_mean_motion_dot": 1.173e-05,
        "meta_mean_motion_ddot": 0,
        "tle_line1": "1 27424U 02022A   25348.94512740  .00001173  00000+0  24484-3 0  9995",
        "tle_line2": "2 27424  98.4040 309.8600 0001168 114.5725 290.1501 14.61814090256356"
      },
      "geometry": {
        "type": "Point",
        "coordinates": [
          124.97905440064929,
          -34.43806032861286
        ]
      }
    }
  ]
}